NORAD_CAT_ID,OBJECT_NAME,OBJECT_TYPE,EPOCH,MEAN_MOTION,ECCENTRICITY,INCLINATION,RA_OF_ASC_NODE,ARG_OF_PERICENTER,MEAN_ANOMALY,BSTAR,MEAN_MOTION_DOT,MEAN_MOTION_DDOT,TLE_LINE0,TLE_LINE1,TLE_LINE2,SEMIMAJOR_AXIS,PERIOD,APOGEE,PERIGEE,DECAYED
56490.0,STARLINK-5873,PAYLOAD,2024-05-13 20:37:56,14.98315974,0.0002748,69.9977,340.88,269.281,90.8034,0.00026033,3.013e-05,0.0,0 STARLINK-5873,1 56490U 23064AU  24134.85967803  .00003013  00000-0  26033-3 0  9993,2 56490  69.9977 340.8800 0002748 269.2810  90.8034 14.98315974 56641,6950.236,96.108,574.011,570.191,0.0
56490.0,STARLINK-5873,PAYLOAD,2024-05-13 23:50:12,14.98323679,0.0002811,69.9985,340.543,273.6371,86.4466,0.00023747,2.741e-05,0.0,0 STARLINK-5873,1 56490U 23064AU  24134.99319524  .00002741  00000-0  23747-3 0  9995,2 56490  69.9985 340.5430 0002811 273.6371  86.4466 14.98323679 56661,6950.212,96.107,574.031,570.124,0.0
56490.0,STARLINK-5873,PAYLOAD,2024-05-14 20:39:57,14.98309814,0.0002754,69.9979,338.3509,281.6163,78.4687,0.00055781,6.565e-05,0.0,0 STARLINK-5873,1 56490U 23064AU  24135.86108428  .00006565  00000-0  55781-3 0  9992,2 56490  69.9979 338.3509 0002754 281.6163  78.4687 14.98309814 57156,6950.255,96.108,574.034,570.206,0.0
56490.0,STARLINK-5873,PAYLOAD,2024-05-14 22:16:05,14.98305102,0.0002769,69.9977,338.1846,271.1155,88.9686,0.00074066,8.75e-05,0.0,0 STARLINK-5873,1 56490U 23064AU  24135.92784313  .00008750  00000-0  74066-3 0  9997,2 56490  69.9977 338.1846 0002769 271.1155  88.9686 14.98305102 56809,6950.27,96.109,574.059,570.21,0.0
56490.0,STARLINK-5873,PAYLOAD,2024-05-15 12:41:16,14.98358509,0.0002213,69.9982,336.6696,279.6272,80.4637,3.9853e-05,3.83e-06,0.0,0 STARLINK-5873,1 56490U 23064AU  24136.52866532  .00000383  00000-0  39853-4 0  9998,2 56490  69.9982 336.6696 0002213 279.6272  80.4637 14.98358509 57250,6950.105,96.105,573.508,570.432,0.0
56490.0,STARLINK-5873,PAYLOAD,2024-05-15 14:17:24,14.98345933,0.0003268,69.996,336.5021,272.7247,87.3538,0.00031986,3.727e-05,0.0,0 STARLINK-5873,1 56490U 23064AU  24136.59541936  .00003727  00000-0  31986-3 0  9996,2 56490  69.9960 336.5021 0003268 272.7247  87.3538 14.98345933 56908,6950.144,96.106,574.28,569.737,0.0
56490.0,STARLINK-5873,PAYLOAD,2024-05-15 20:41:55,14.98361614,0.0002827,69.999,335.8292,276.1912,83.8925,0.00015039,1.703e-05,0.0,0 STARLINK-5873,1 56490U 23064AU  24136.86245137  .00001703  00000-0  15039-3 0  9993,2 56490  69.9990 335.8292 0002827 276.1912  83.8925 14.98361614 57300,6950.095,96.105,573.925,569.995,0.0
56490.0,STARLINK-5873,PAYLOAD,2024-05-15 22:18:03,14.98365738,0.0002755,69.9986,335.661,275.4392,84.6453,0.00019732,2.264e-05,0.0,0 STARLINK-5873,1 56490U 23064AU  24136.92920576  .00002264  00000-0  19732-3 0  9994,2 56490  69.9986 335.6610 0002755 275.4392  84.6453 14.98365738 56957,6950.082,96.105,573.862,570.033,0.0
56490.0,STARLINK-5873,PAYLOAD,2024-05-16 12:43:16,14.98353699,0.0001896,69.9982,334.1454,280.4953,79.5992,-5.8818e-05,-7.95e-06,0.0,0 STARLINK-5873,1 56490U 23064AU  24137.53005400 -.00000795  00000-0 -58818-4 0  9990,2 56490  69.9982 334.1454 0001896 280.4953  79.5992 14.98353699 57402,6950.12,96.105,573.302,570.667,0.0
56490.0,STARLINK-5873,PAYLOAD,2024-05-16 19:07:49,14.98340789,0.0002409,69.9986,333.4729,269.7209,90.3674,-0.00015919,-1.992e-05,0.0,0 STARLINK-5873,1 56490U 23064AU  24137.79709991 -.00001992  00000-0 -15919-3 0  9998,2 56490  69.9986 333.4729 0002409 269.7209  90.3674 14.98340789 57446,6950.16,96.106,573.699,570.35,0.0
56490.0,STARLINK-5873,PAYLOAD,2024-05-17 12:45:18,14.98333424,0.0002466,69.999,331.6223,271.9949,88.0927,-0.00033453,-4.082e-05,0.0,0 STARLINK-5873,1 56490U 23064AU  24138.53146582 -.00004082  00000-0 -33453-3 0  9998,2 56490  69.9990 331.6223 0002466 271.9949  88.0927 14.98333424 57554,6950.182,96.107,573.761,570.333,0.0
56490.0,STARLINK-5873,PAYLOAD,2024-05-17 22:22:06,14.9833209,0.0002836,69.9981,330.6116,276.2361,83.8475,-0.00030367,-3.715e-05,0.0,0 STARLINK-5873,1 56490U 23064AU  24138.93202475 -.00003715  00000-0 -30367-3 0  9999,2 56490  69.9981 330.6116 0002836 276.2361  83.8475 14.98332090 57257,6950.186,96.107,574.023,570.08,0.0
56490.0,STARLINK-5873,PAYLOAD,2024-05-18 12:47:18,14.98334118,0.0002626,69.9952,329.0958,270.1229,89.9629,0.00014215,1.604e-05,0.0,0 STARLINK-5873,1 56490U 23064AU  24139.53284861  .00001604  00000-0  14215-3 0  9992,2 56490  69.9952 329.0958 0002626 270.1229  89.9629 14.98334118 57705,6950.18,96.107,573.87,570.22,0.0
56490.0,STARLINK-5873,PAYLOAD,2024-05-18 14:23:26,14.98338185,0.0002467,69.9979,328.927,271.6431,88.4446,0.00011316,1.258e-05,0.0,0 STARLINK-5873,1 56490U 23064AU  24139.59960707  .00001258  00000-0  11316-3 0  9992,2 56490  69.9979 328.9270 0002467 271.6431  88.4446 14.98338185 57353,6950.168,96.106,573.747,570.318,0.0
56490.0,STARLINK-5873,PAYLOAD,2024-05-18 20:47:57,14.98343345,0.0002825,69.9986,328.2537,268.6402,91.4433,0.00023085,2.663e-05,0.0,0 STARLINK-5873,1 56490U 23064AU  24139.86663871  .00002663  00000-0  23085-3 0  9991,2 56490  69.9986 328.2537 0002825 268.6402  91.4433 14.98343345 57750,6950.152,96.106,573.98,570.053,0.0
56490.0,STARLINK-5873,PAYLOAD,2024-05-18 22:24:05,14.98346458,0.0002773,69.9987,328.0855,271.2478,88.8364,0.00021238,2.443e-05,0.0,0 STARLINK-5873,1 56490U 23064AU  24139.93339690  .00002443  00000-0  21238-3 0  9992,2 56490  69.9987 328.0855 0002773 271.2478  88.8364 14.98346458 57400,6950.142,96.106,573.934,570.08,0.0
56490.0,STARLINK-5873,PAYLOAD,2024-05-19 14:25:28,14.98315378,0.0002742,69.9987,326.4021,272.7229,87.3616,6.171e-05,6.43e-06,0.0,0 STARLINK-5873,1 56490U 23064AU  24140.60102256  .00000643  00000-0  61710-4 0  9994,2 56490  69.9987 326.4021 0002742 272.7229  87.3616 14.98315378 57505,6950.238,96.108,574.009,570.197,0.0
56490.0,STARLINK-5873,PAYLOAD,2024-05-20 12:51:20,14.98336245,0.0003117,69.9981,324.0449,268.1009,91.9793,-6.4336e-05,-8.61e-06,0.0,0 STARLINK-5873,1 56490U 23064AU  24141.53565497 -.00000861  00000-0 -64336-4 0  9998,2 56490  69.9981 324.0449 0003117 268.1009  91.9793 14.98336245 58008,6950.174,96.107,574.205,569.872,0.0
56490.0,STARLINK-5873,PAYLOAD,2024-05-20 14:27:28,14.98337822,0.0003059,69.9982,323.8761,268.9568,91.124,-7.0365e-05,-9.33e-06,0.0,0 STARLINK-5873,1 56490U 23064AU  24141.60241410 -.00000933  00000-0 -70365-4 0  9991,2 56490  69.9982 323.8761 0003059 268.9568  91.1240 14.98337822 57657,6950.169,96.106,574.16,569.908,0.0
56490.0,STARLINK-5873,PAYLOAD,2024-05-20 20:52:00,14.98346222,0.0002937,69.9987,323.2042,269.3855,90.6967,-1.7524e-05,-3.02e-06,0.0,0 STARLINK-5873,1 56490U 23064AU  24141.86944592 -.00000302  00000-0 -17524-4 0  9998,2 56490  69.9987 323.2042 0002937 269.3855  90.6967 14.98346222 58055,6950.143,96.106,574.049,569.966,0.0
56490.0,STARLINK-5873,PAYLOAD,2024-05-21 12:53:21,14.98323117,0.0002269,70.0005,321.5217,244.4904,115.6021,0.00018683,2.137e-05,0.0,0 STARLINK-5873,1 56490U 23064AU  24142.53705247  .00002137  00000-0  18683-3 0  9997,2 56490  70.0005 321.5217 0002269 244.4904 115.6021 14.98323117 58159,6950.214,96.107,573.656,570.502,0.0
56490.0,STARLINK-5873,PAYLOAD,2024-05-21 14:29:29,14.98322404,0.0002327,70.0004,321.3534,243.7462,116.3458,0.00017167,1.956e-05,0.0,0 STARLINK-5873,1 56490U 23064AU  24142.60381344  .00001956  00000-0  17167-3 0  9997,2 56490  70.0004 321.3534 0002327 243.7462 116.3458 14.98322404 57805,6950.216,96.107,573.699,570.464,0.0
56490.0,STARLINK-5873,PAYLOAD,2024-05-21 20:54:01,14.98322699,0.0002385,70.0003,320.6802,250.45,109.6402,0.00013051,1.464e-05,0.0,0 STARLINK-5873,1 56490U 23064AU  24142.87085554  .00001464  00000-0  13051-3 0  9992,2 56490  70.0003 320.6802 0002385 250.4500 109.6402 14.98322699 57840,6950.215,96.107,573.738,570.423,0.0
56490.0,STARLINK-5873,PAYLOAD,2024-05-22 11:19:14,14.98334102,0.0002469,70.0002,319.1653,256.1539,103.9346,-2.874e-05,-4.36e-06,0.0,0 STARLINK-5873,1 56490U 23064AU  24143.47169283 -.00000436  00000-0 -28740-4 0  9993,2 56490  70.0002 319.1653 0002469 256.1539 103.9346 14.98334102 57930,6950.18,96.107,573.761,570.329,0.0
56490.0,STARLINK-5873,PAYLOAD,2024-05-22 20:56:02,14.98330721,0.0002522,70.0002,318.1552,258.1194,101.9683,-6.6441e-05,-8.86e-06,0.0,0 STARLINK-5873,1 56490U 23064AU  24143.87225529 -.00000886  00000-0 -66441-4 0  9992,2 56490  70.0002 318.1552 0002522 258.1194 101.9683 14.98330721 58358,6950.191,96.107,573.808,570.303,0.0
56490.0,STARLINK-5873,PAYLOAD,2024-05-23 14:33:31,14.98329694,0.0002923,69.9993,316.3024,263.0929,96.9897,-1.9559e-05,-3.26e-06,0.0,0 STARLINK-5873,1 56490U 23064AU  24144.60661355 -.00000326  00000-0 -19559-4 0  9992,2 56490  69.9993 316.3024 0002923 263.0929  96.9897 14.98329694 58104,6950.194,96.107,574.09,570.027,0.0
56490.0,STARLINK-5873,PAYLOAD,2024-05-23 20:58:03,14.98334448,0.0002923,69.9993,315.6294,262.8914,97.1912,3.4461e-05,3.18e-06,0.0,0 STARLINK-5873,1 56490U 23064AU  24144.87364877  .00000318  00000-0  34461-4 0  9998,2 56490  69.9993 315.6294 0002923 262.8914  97.1912 14.98334448 58144,6950.179,96.107,574.076,570.013,0.0
56490.0,STARLINK-5873,PAYLOAD,2024-05-24 12:59:24,14.98327976,0.0002939,69.9993,313.9471,259.8172,100.2656,1.5151e-07,-9.1e-07,0.0,0 STARLINK-5873,1 56490U 23064AU  24145.54125333 -.00000091  00000-0  15151-6 0  9991,2 56490  69.9993 313.9471 0002939 259.8172 100.2656 14.98327976 58601,6950.199,96.107,574.107,570.021,0.0
56490.0,STARLINK-5873,PAYLOAD,2024-05-24 14:35:32,14.98328523,0.0002931,69.9994,313.7784,260.0935,99.9893,5.3722e-06,-2.9e-07,0.0,0 STARLINK-5873,1 56490U 23064AU  24145.60801291 -.00000029  00000-0  53722-5 0  9998,2 56490  69.9994 313.7784 0002931 260.0935  99.9893 14.98328523 58257,6950.197,96.107,574.1,570.025,0.0
56490.0,STARLINK-5873,PAYLOAD,2024-05-24 21:00:04,14.98334279,0.0002882,69.9994,313.1054,257.4825,102.6012,7.1125e-05,7.56e-06,0.0,0 STARLINK-5873,1 56490U 23064AU  24145.87504697  .00000756  00000-0  71125-4 0  9999,2 56490  69.9994 313.1054 0002882 257.4825 102.6012 14.98334279 58658,6950.18,96.107,574.048,570.042,0.0
